SEEDS II (CO-66)        
1 32791U 08021J   26104.24090676  .00009444  00000+0  32190-3 0  9998
2 32791  97.7524  99.1999 0004106 139.3108 220.8439 15.30597115977503
YUBILEINY (RS30)        
1 32953U 08025A   26104.27931398  .00000016  00000+0  45411-4 0  9997
2 32953  82.5062  35.1846 0020592  89.8481 270.4958 12.43177610811759
KKS-1 (KISEKI)          
1 33499U 09002H   26104.22746507  .00000869  00000+0  11383-3 0  9996
2 33499  98.1189  25.6667 0008870 130.6704 229.5282 14.82958435926716
SWISSCUBE               
1 35932U 09051B   26104.19559638  .00000643  00000+0  13697-3 0  9997
2 35932  98.4073  10.9647 0007962  57.3265 302.8702 14.62356031879809
BEESAT-1                
1 35933U 09051C   26104.17216383  .00000532  00000+0  11691-3 0  9992
2 35933  98.4001  10.7088 0006540  70.2330 289.9575 14.61614343879834
ITUPSAT1                
1 35935U 09051E   26104.17572017  .00000489  00000+0  11121-3 0  9992
2 35935  98.4089   9.9714 0008771  78.6877 281.5308 14.60342610879391
XIWANG-1 (HOPE-1)       
1 36122U 09072B   26104.25262443 -.00000248  00000+0 -53264-3 0  9991
2 36122 100.3967  59.1224 0007871  24.0283 336.1196 13.16436155784594
O/OREOS (USA 219)       
1 37224U 10062C   26104.30121746  .00001312  00000+0  13038-3 0  9998
2 37224  71.9709 225.0167 0015089 195.6381 164.4326 14.93488082107104
JUGNU                   
1 37839U 11058B   26103.99465079  .00000406  00000+0  72464-4 0  9992
2 37839  19.9624 338.4145 0018601  87.7923 315.9848 14.13756823749933
SRMSAT                  
1 37841U 11058D   26104.31023310  .00000364  00000+0  53637-4 0  9994
2 37841  19.9716  86.0981 0011644 220.2979 168.1284 14.11560196748785
STRAND-1                
1 39090U 13009E   26104.28164693  .00000202  00000+0  82324-4 0  9992
2 39090  98.3911 286.0924 0009731  65.9762 294.2442 14.37125108687886
ZACUBE-1 (TSHEPISOSAT)  
1 39417U 13066B   26104.14056077  .00002298  00000+0  18272-3 0  9996
2 39417  97.8125  66.1377 0044981 105.5324 255.0872 15.00663839671121
GOMX-1                  
1 39430U 13066Q   26104.30819439  .00001068  00000+0  16812-3 0  9990
2 39430  97.6540 308.7900 0127644 282.9169  75.7807 14.69232115660538
CUBEBUG-2 (LO-74)       
1 39440U 13066AA  26104.28164977  .00002084  00000+0  19858-3 0  9990
2 39440  97.8860  53.0331 0056501 238.4888 121.0804 14.93333580667456
FUNCUBE-1 (AO-73)       
1 39444U 13066AE  26103.86977851  .00005501  00000+0  35027-3 0  9993
2 39444  97.8226  74.0354 0038589  63.9684 296.5509 15.08574092669965
UWE-3                   
1 39446U 13066AG  26103.43540102  .00002441  00000+0  21488-3 0  9999
2 39446  97.8655  59.1237 0049495 173.3046 186.8847 14.96527693667890
UNISAT-6                
1 40012U 14033C   26103.84845157  .00001755  00000+0  19465-3 0  9997
2 40012  97.7790 257.7392 0043937 280.7140  78.9131 14.87875022636593
DUCHIFAT-1              
1 40021U 14033M   26104.09232148  .00038462  00000+0  58124-3 0  9995
2 40021  98.0564 154.8163 0002996 289.9011  70.1918 15.54624643645769
QB50P1                  
1 40025U 14033R   26104.26531530  .00004354  00000+0  22231-3 0  9998
2 40025  98.0998 110.9748 0010766  86.7908 273.4556 15.17258980643331
LILACSAT-2              
1 40908U 15049K   26104.24546013  .00010747  00000+0  19749-3 0  9999
2 40908  97.4749 138.7275 0008834 119.6365 240.5767 15.49375586585844
FOX-1A (AO-85)          
1 40967U 15058D   26104.15365988  .00001453  00000+0  14231-3 0  9999
2 40967  64.7725 117.9180 0128372  81.7350 279.8295 14.90581938104020
CAS-2T & KS-1Q          
1 41847U 16066G   26104.17094911  .00000379  00000+0  63286-4 0  9995
2 41847  98.3840 180.6270 0341501 323.9679  33.8917 14.44553884495550
RADFXSAT (FOX-1B)       
1 43017U 17073E   26104.15151395  .00004122  00000+0  18602-3 0  9994
2 43017  97.4806 332.7053 0153363 188.9284 170.9215 15.11587581455714
DIWATA-2B               
1 43678U 18084H   26104.27620009  .00001403  00000+0  11743-3 0  9994
2 43678  98.1052 297.7780 0013887  23.2181 336.9666 15.00144843406637
ES'HAIL 2               
1 43700U 18090A   26104.23522292  .00000148  00000+0  00000+0 0  9993
2 43700   0.0159 249.5095 0001195 155.2274 268.1409  1.00271995 27033
FOX-1CLIFF (AO-95)      
1 43770U 18099N   26104.14389934  .00005469  00000+0  21958-3 0  9993
2 43770  97.4445 164.6778 0008530 203.4823 156.6026 15.25349640403454
ITASAT                  
1 43786U 18099AE  26104.10742725  .00003587  00000+0  17820-3 0  9999
2 43786  97.4100 156.9170 0012118 209.2284 150.8274 15.18243433403187
JY1SAT (JO-97)          
1 43803U 18099AX  26104.11110516  .00009483  00000+0  31245-3 0  9995
2 43803  97.4194 166.8073 0007273 132.9283 227.2570 15.31661109403816
UWE-4                   
1 43880U 18111E   26103.73549387  .00017339  00000+0  40295-3 0  9998
2 43880  97.5852  29.3603 0008177 177.3772 182.7519 15.42377655400834
TIANYAN 01              
1 44881U 19093C   26104.29732083  .00000924  00000+0  11066-3 0  9995
2 44881  97.7560 178.0830 0012274 301.0862  58.9149 14.86418954341929
RS-44 & BREEZE-KM R/B   
1 44909U 19096E   26104.13128624  .00000000  00000+0 -37811-4 0  9995
2 44909  82.5263  22.2678 0216478 294.3230  63.5403 12.79747913294154
SALSAT                  
1 46495U 20068K   26103.56539140  .00004439  00000+0  16112-3 0  9992
2 46495  97.8865 102.7460 0010532 159.4430 200.7234 15.28855640305482
XW-3 (CAS-9)            
1 50466U 21131B   26104.25695075  .00000346  00000+0  12074-3 0  9990
2 50466  98.4945 197.0053 0002934 298.1417  61.9475 14.41295941225907
GREENCUBE (IO-117)      
1 53109U 22080E   26102.66137228 -.00000003  00000+0  00000+0 0  9998
2 53109  70.1495 321.0449 0008941 304.4164  55.5650  6.42583304 87852
UMKA 1 (RS40S)          
1 57172U 23091G   26104.25595882  .00003338  00000+0  15747-3 0  9997
2 57172  97.5113 163.2155 0012329 349.9362  10.1624 15.20113443154295
CUBESX-HSE 3 (RS42S)    
1 57178U 23091N   26104.29281503  .00006441  00000+0  22650-3 0  9998
2 57178  97.5145 169.1372 0009756 323.9145  36.1435 15.29668347154658
MONITOR-3 (RS58S)       
1 57180U 23091Q   26104.24877932  .00005650  00000+0  21831-3 0  9994
2 57180  97.5141 167.2725 0010775 331.1217  28.9424 15.26606807154536
MONITOR-4 (RS57S)       
1 57182U 23091S   26104.23182035  .00005442  00000+0  20979-3 0  9999
2 57182  97.5134 167.2222 0010763 331.6514  28.4138 15.26700983154531
MONITOR-2 (RS39S)       
1 57184U 23091U   26104.26580362  .00002589  00000+0  12932-3 0  9998
2 57184  97.5136 162.9712 0010572 342.9876  17.1002 15.18334987154257
SVYATOBOR 1 (RS60S)     
1 57187U 23091X   26104.25924018  .00004944  00000+0  19761-3 0  9994
2 57187  97.5146 167.7598 0008308 324.2575  35.8106 15.25560841154563
VIZARD-METEO (RS38S)    
1 57189U 23091Z   26104.26219841  .00008791  00000+0  26895-3 0  9998
2 57189  97.5139 172.5546 0005986 301.0495  59.0159 15.34071074154883
NANOZOND 1 (RS49S)      
1 57190U 23091AA  26103.13742800  .01294825  98703-3  19373-2 0  9990
2 57190  97.4904 186.7286 0009924 254.0597 105.9590 16.04903813155736
POLYTECH-UNIVERSE 3 (R*)
1 57191U 23091AB  26104.23545075  .00002942  00000+0  14549-3 0  9994
2 57191  97.5111 162.4468 0015312 358.2036   1.9140 15.18530584154240
UTMN 2 (RS27S)          
1 57203U 23091AP  26104.28081425  .00006557  00000+0  22464-3 0  9998
2 57203  97.5139 170.6801 0006809 310.3268  49.7377 15.30534801154762
KUZGTU 1 (RS47S)        
1 57217U 23091AV  26104.23048344  .00006111  00000+0  22316-3 0  9993
2 57217  97.5119 168.1157 0010012 328.2377  31.8257 15.28452404154608
SONATE-2                
1 59112U 24043Q   26103.65132145  .00022441  00000+0  34463-3 0  9995
2 59112  97.5450 250.3536 0007416  83.5924 276.6173 15.54259410117853
MESAT1                  
1 60209U 24125G   26104.15010507  .00027339  00000+0  37701-3 0  9997
2 60209  97.2402 320.4500 0012600  96.3835 263.8856 15.57087212 99587
OOV-CUBE (TUBSAT-30)    
1 60240U 24128F   26104.23756291  .00001338  00000+0  11359-3 0  9993
2 60240  61.9930  88.5070 0051593 119.7974 240.8262 15.02460718 96509
COLIBRI-S (RS67S)       
1 61746U 24199M   26104.25765305  .00011822  00000+0  25089-3 0  9995
2 61746  97.3101 337.6243 0010160 143.9494 216.2442 15.45142697127530
HORS 3 (RS81S)          
1 61753U 24199U   26104.22663009  .00018019  00000+0  31273-3 0  9995
2 61753  97.3077 338.9710 0008418 144.6459 215.5352 15.50872681127637
HORS 4 (RS82S)          
1 61754U 24199V   26104.28755617  .00023402  00000+0  35839-3 0  9993
2 61754  97.3040 339.8847 0008037 139.8597 220.3252 15.54317084127701
HORIZON (RS59S)         
1 61757U 24199Y   26104.22976365  .00182077  00000+0  79849-3 0  9998
2 61757  97.2969 344.9355 0006613 131.1926 228.9916 15.84114881128023
ARCTICSAT 1 (RS74S)     
1 61762U 24199AD  26103.94270029  .00103409  00000+0  69850-3 0  9999
2 61762  97.3000 343.8148 0007130 123.8132 236.3813 15.74733508127925
SIT-2086                
1 61764U 24199AF  26104.26147782  .00013549  00000+0  24729-3 0  9997
2 61764  97.3067 339.6777 0007819 133.7559 226.4341 15.49510849124520
HYPERVIEW 1G (RS66S)    
1 61772U 24199AP  26104.27776022  .00047097  00000+0  50832-3 0  9991
2 61772  97.3014 341.4029 0009149 139.8595 220.3342 15.63470382124658
ALTAIR (RS65S)          
1 61779U 24199AW  26104.28515981  .00006084  00000+0  17626-3 0  9999
2 61779  97.3128 334.0836 0013471 168.3468 191.8090 15.35843912127303
ASRTU-1 (AO-123)        
1 61781U 24199AY  26104.28789012  .00004505  00000+0  13574-3 0  9994
2 61781  97.3100 333.5467 0014340 171.1649 188.9849 15.34745176124127
TUSUR GO (RS78S)        
1 61782U 24199AZ  26104.27071361  .00262906  00000+0  97551-3 0  9993
2 61782  97.2910 344.0497 0007167 141.3286 218.8500 15.87400645124833
SAMSAT-IONOSPHERE (RS7*)
1 61784U 24199BB  26104.28308949  .00022301  00000+0  36393-3 0  9991
2 61784  97.3061 338.8918 0010982 148.1411 212.0508 15.52532095127638
